[
  {
    "name": "ONEWEB-0236",
    "noradId": "48797",
    "line1": "1 48797U 21045AG  26156.84329364 -.00000080  00000+0 -24710-3 0  9992",
    "line2": "2 48797  87.9000 261.4664 0002041 103.6917 256.4441 13.15547428242761"
  },
  {
    "name": "ONEWEB-0248",
    "noradId": "48798",
    "line1": "1 48798U 21045AH  26156.55172480 -.00000063  00000+0 -20156-3 0  9997",
    "line2": "2 48798  87.9010 261.5064 0001489 110.2066 249.9225 13.15547138242880"
  },
  {
    "name": "ONEWEB-0225",
    "noradId": "48799",
    "line1": "1 48799U 21045AJ  26156.80210256  .00000056  00000+0  11340-3 0  9995",
    "line2": "2 48799  87.9003 261.4658 0001341  98.8597 261.2685 13.15548254242920"
  },
  {
    "name": "ONEWEB-0215",
    "noradId": "48800",
    "line1": "1 48800U 21045AK  26156.84803101 -.00000055  00000+0 -17951-3 0  9994",
    "line2": "2 48800  87.9007 261.4381 0001197 105.5305 254.5958 13.15550915242804"
  },
  {
    "name": "ONEWEB-0216",
    "noradId": "48801",
    "line1": "1 48801U 21045AL  26156.32515893 -.00000188  00000+0 -53366-3 0  9993",
    "line2": "2 48801  87.9008 261.5582 0002031 105.8727 254.2627 13.15548438242749"
  },
  {
    "name": "ONEWEB-0239",
    "noradId": "48802",
    "line1": "1 48802U 21045AM  26156.55807900 -.00000099  00000+0 -29599-3 0  9994",
    "line2": "2 48802  87.8998 261.5190 0001222 117.9831 242.1423 13.15547813242817"
  },
  {
    "name": "ONEWEB-0249",
    "noradId": "48967",
    "line1": "1 48967U 21060A   26156.95734279  .00000013  00000+0  48164-6 0  9991",
    "line2": "2 48967  87.9103 231.0072 0002024 104.9405 255.1950 13.16594885238134"
  },
  {
    "name": "ONEWEB-0250",
    "noradId": "48968",
    "line1": "1 48968U 21060B   26155.70441518  .00000073  00000+0  13565-3 0  9995",
    "line2": "2 48968  87.9106 229.0536 0002428 125.4556 234.6807 13.25832788238560"
  },
  {
    "name": "ONEWEB-0252",
    "noradId": "48970",
    "line1": "1 48970U 21060D   26156.45622841 -.00000014  00000+0 -69194-4 0  9998",
    "line2": "2 48970  87.9102 231.0988 0002006  93.9001 266.2359 13.16593295238110"
  },
  {
    "name": "ONEWEB-0253",
    "noradId": "48971",
    "line1": "1 48971U 21060E   26155.68517295  .00000034  00000+0  56394-4 0  9997",
    "line2": "2 48971  87.9083 231.2614 0002071 115.0939 245.0407 13.16593287237945"
  },
  {
    "name": "ONEWEB-0254",
    "noradId": "48972",
    "line1": "1 48972U 21060F   26155.23869941  .00000029  00000+0  42018-4 0  9999",
    "line2": "2 48972  87.9107 231.3439 0001778 105.8008 254.3319 13.16594281237889"
  },
  {
    "name": "ONEWEB-0255",
    "noradId": "48973",
    "line1": "1 48973U 21060G   26156.94863314  .00000057  00000+0  11479-3 0  9994",
    "line2": "2 48973  87.9098 231.0116 0001831 101.6942 258.4395 13.16594253238181"
  },
  {
    "name": "ONEWEB-0256",
    "noradId": "48974",
    "line1": "1 48974U 21060H   26156.44276097  .00000092  00000+0  20753-3 0  9990",
    "line2": "2 48974  87.9101 231.1162 0002149  97.7395 262.3980 13.16593212238086"
  },
  {
    "name": "ONEWEB-0257",
    "noradId": "48975",
    "line1": "1 48975U 21060J   26156.47522850  .00000012  00000+0 -21384-5 0  9991",
    "line2": "2 48975  87.9104 231.0968 0001904  96.7463 263.3885 13.16594155238044"
  },
  {
    "name": "ONEWEB-0258",
    "noradId": "48976",
    "line1": "1 48976U 21060K   26156.93279580 -.00000037  00000+0 -13150-3 0  9990",
    "line2": "2 48976  87.9105 231.0178 0002024 101.1289 259.0070 13.16593789238118"
  },
  {
    "name": "ONEWEB-0259",
    "noradId": "48977",
    "line1": "1 48977U 21060L   26156.47048577 -.00000024  00000+0 -95434-4 0  9992",
    "line2": "2 48977  87.9104 231.1086 0001944 103.9719 256.1628 13.16594333238084"
  },
  {
    "name": "ONEWEB-0260",
    "noradId": "48978",
    "line1": "1 48978U 21060M   26156.46176657 -.00000041  00000+0 -14086-3 0  9995",
    "line2": "2 48978  87.9088 231.1107 0002108  90.5395 269.5978 13.16593583238064"
  },
  {
    "name": "ONEWEB-0261",
    "noradId": "48979",
    "line1": "1 48979U 21060N   26156.50768115  .00000039  00000+0  68341-4 0  9996",
    "line2": "2 48979  87.9102 231.1033 0001701  95.2192 264.9133 13.16595503238128"
  },
  {
    "name": "ONEWEB-0262",
    "noradId": "48980",
    "line1": "1 48980U 21060P   26156.94388144  .00000005  00000+0 -19348-4 0  9993",
    "line2": "2 48980  87.9099 231.0026 0001906 107.5712 252.5627 13.16594155238143"
  },
  {
    "name": "ONEWEB-0263",
    "noradId": "48981",
    "line1": "1 48981U 21060Q   26156.44356739  .00000037  00000+0  63539-4 0  9999",
    "line2": "2 48981  87.9105 231.1128 0001701 101.0102 259.1220 13.16594592238047"
  },
  {
    "name": "ONEWEB-0264",
    "noradId": "48982",
    "line1": "1 48982U 21060R   26156.93676169  .00000108  00000+0  24983-3 0  9994",
    "line2": "2 48982  87.9101 231.0183 0001934  93.5352 266.6000 13.16593630238113"
  },
  {
    "name": "ONEWEB-0266",
    "noradId": "48984",
    "line1": "1 48984U 21060T   26156.95812751  .00000118  00000+0  27553-3 0  9994",
    "line2": "2 48984  87.9097 231.0047 0002069 101.7786 258.3577 13.16593718238104"
  },
  {
    "name": "ONEWEB-0267",
    "noradId": "48985",
    "line1": "1 48985U 21060U   26156.96921475  .00000125  00000+0  29217-3 0  9997",
    "line2": "2 48985  87.9109 230.9989 0001828  96.5130 263.6209 13.16594014238110"
  },
  {
    "name": "ONEWEB-0268",
    "noradId": "48986",
    "line1": "1 48986U 21060V   26156.93754440 -.00000013  00000+0 -67291-4 0  9994",
    "line2": "2 48986  87.9103 231.0154 0002112  95.5411 264.5961 13.16595870238373"
  },
  {
    "name": "ONEWEB-0269",
    "noradId": "48987",
    "line1": "1 48987U 21060W   26156.46256654  .00000106  00000+0  24345-3 0  9990",
    "line2": "2 48987  87.9084 231.1110 0002158  99.9355 260.2020 13.16593255238082"
  },
  {
    "name": "ONEWEB-0270",
    "noradId": "48988",
    "line1": "1 48988U 21060X   26156.93596598  .00000070  00000+0  14946-3 0  9993",
    "line2": "2 48988  87.9108 231.0170 0001710 105.1202 255.0119 13.16593812238180"
  },
  {
    "name": "ONEWEB-0271",
    "noradId": "48989",
    "line1": "1 48989U 21060Y   26156.46731660 -.00000018  00000+0 -80970-4 0  9998",
    "line2": "2 48989  87.9104 231.1003 0001769  97.9774 262.1558 13.16594303238125"
  },
  {
    "name": "ONEWEB-0272",
    "noradId": "48990",
    "line1": "1 48990U 21060Z   26156.94544874  .00000037  00000+0  62885-4 0  9996",
    "line2": "2 48990  87.9102 231.0170 0001941  90.8039 269.3314 13.16595974238132"
  },
  {
    "name": "ONEWEB-0273",
    "noradId": "48991",
    "line1": "1 48991U 21060AA  26156.43565334  .00000052  00000+0  10124-3 0  9990",
    "line2": "2 48991  87.9099 231.1165 0001902 102.9683 257.1660 13.16594157238041"
  },
  {
    "name": "ONEWEB-0274",
    "noradId": "48992",
    "line1": "1 48992U 21060AB  26155.24502029 -.00000024  00000+0 -95882-4 0  9997",
    "line2": "2 48992  87.9080 231.3546 0002028  90.4123 269.7240 13.16593413237920"
  }
]