OBJECT_NAME,OBJECT_ID,EPOCH,MEAN_MOTION,ECCENTRICITY,INCLINATION,RA_OF_ASC_NODE,ARG_OF_PERICENTER,MEAN_ANOMALY,EPHEMERIS_TYPE,CLASSIFICATION_TYPE,NORAD_CAT_ID,ELEMENT_SET_NO,REV_AT_EPOCH,BSTAR,MEAN_MOTION_DOT,MEAN_MOTION_DDOT
ONEWEB-0236,2021-045AG,2026-06-05T20:14:20.569632,13.15547428,.0002041,87.9000,261.4664,103.6917,256.4441,0,U,48797,999,24276,-.2471E-3,-.8E-6,0
ONEWEB-0248,2021-045AH,2026-06-05T13:14:29.022720,13.15547138,.0001489,87.9010,261.5064,110.2066,249.9225,0,U,48798,999,24288,-.20155876E-3,-.63E-6,0
ONEWEB-0225,2021-045AJ,2026-06-05T19:15:01.661184,13.15548254,.00013411,87.9003,261.4658,98.8597,261.2685,0,U,48799,999,24292,.11339859E-3,.56E-6,0
ONEWEB-0215,2021-045AK,2026-06-05T20:21:09.879264,13.15550915,.0001198,87.9007,261.4381,105.5305,254.5958,0,U,48800,999,24280,-.17951E-3,-.55E-6,0
ONEWEB-0216,2021-045AL,2026-06-05T07:48:13.731552,13.15548438,.00020313,87.9008,261.5582,105.8727,254.2627,0,U,48801,999,24274,-.53366277E-3,-.188E-5,0
ONEWEB-0239,2021-045AM,2026-06-05T13:23:38.025600,13.15547813,.00012221,87.8998,261.5190,117.9831,242.1423,0,U,48802,999,24281,-.29598888E-3,-.99E-6,0
ONEWEB-0249,2021-060A,2026-06-05T22:58:34.417056,13.16594885,.0002024,87.9103,231.0072,104.9405,255.1950,0,U,48967,999,23813,.48164E-6,.13E-6,0
ONEWEB-0250,2021-060B,2026-06-04T16:54:21.471552,13.25832788,.00024281,87.9106,229.0536,125.4556,234.6807,0,U,48968,999,23856,.1356468E-3,.73E-6,0
ONEWEB-0252,2021-060D,2026-06-05T10:56:58.134624,13.16593295,.0002006,87.9102,231.0988,93.9001,266.2359,0,U,48970,999,23811,-.6919388E-4,-.14E-6,0
ONEWEB-0253,2021-060E,2026-06-04T16:26:38.942880,13.16593287,.0002071,87.9083,231.2614,115.0939,245.0407,0,U,48971,999,23794,.56394E-4,.34E-6,0
ONEWEB-0254,2021-060F,2026-06-04T05:43:43.629024,13.16594281,.00017783,87.9107,231.3439,105.8008,254.3319,0,U,48972,999,23788,.42018395E-4,.29E-6,0
ONEWEB-0255,2021-060G,2026-06-05T22:46:01.903296,13.16594253,.0001831,87.9098,231.0116,101.6942,258.4395,0,U,48973,999,23818,.11479E-3,.57E-6,0
ONEWEB-0256,2021-060H,2026-06-05T10:37:34.547808,13.16593212,.00021494,87.9101,231.1162,97.7395,262.3980,0,U,48974,999,23808,.20753393E-3,.92E-6,0
ONEWEB-0257,2021-060J,2026-06-05T11:24:19.742400,13.16594155,.00019046,87.9104,231.0968,96.7463,263.3885,0,U,48975,999,23804,-.2138416E-5,.12E-6,0
ONEWEB-0258,2021-060K,2026-06-05T22:23:13.557120,13.16593789,.0002025,87.9105,231.0178,101.1289,259.0070,0,U,48976,999,23811,-.1315E-3,-.37E-6,0
ONEWEB-0259,2021-060L,2026-06-05T11:17:29.970528,13.16594333,.00019449,87.9104,231.1086,103.9719,256.1628,0,U,48977,999,23808,-.95434042E-4,-.24E-6,0
ONEWEB-0260,2021-060M,2026-06-05T11:04:56.631648,13.16593583,.00021089,87.9088,231.1107,90.5395,269.5978,0,U,48978,999,23806,-.14086296E-3,-.41E-6,0
ONEWEB-0261,2021-060N,2026-06-05T12:11:03.651360,13.16595503,.00017018,87.9102,231.1033,95.2192,264.9133,0,U,48979,999,23812,.68340685E-4,.39E-6,0
ONEWEB-0262,2021-060P,2026-06-05T22:39:11.356416,13.16594155,.0001906,87.9099,231.0026,107.5712,252.5627,0,U,48980,999,23814,-.19348E-4,.5E-7,0
ONEWEB-0263,2021-060Q,2026-06-05T10:38:44.222496,13.16594592,.00017018,87.9105,231.1128,101.0102,259.1220,0,U,48981,999,23804,.63539302E-4,.37E-6,0
ONEWEB-0264,2021-060R,2026-06-05T22:28:56.210016,13.16593630,.0001935,87.9101,231.0183,93.5352,266.6000,0,U,48982,999,23811,.24983E-3,.108E-5,0
ONEWEB-0266,2021-060T,2026-06-05T22:59:42.216000,13.16593718,.0002069,87.9097,231.0047,101.7786,258.3577,0,U,48984,999,23810,.27553E-3,.118E-5,0
ONEWEB-0267,2021-060U,2026-06-05T23:15:40.154400,13.16594014,.0001828,87.9109,230.9989,96.5130,263.6209,0,U,48985,999,23811,.29217E-3,.125E-5,0
ONEWEB-0268,2021-060V,2026-06-05T22:30:03.836160,13.16595870,.0002112,87.9103,231.0154,95.5411,264.5961,0,U,48986,999,23837,-.67291E-4,-.13E-6,0
ONEWEB-0269,2021-060W,2026-06-05T11:06:05.749056,13.16593255,.00021587,87.9084,231.1110,99.9355,260.2020,0,U,48987,999,23808,.24344992E-3,.106E-5,0
ONEWEB-0270,2021-060X,2026-06-05T22:27:47.459808,13.16593812,.000171,87.9108,231.0170,105.1202,255.0119,0,U,48988,999,23818,.14946E-3,.7E-6,0
ONEWEB-0271,2021-060Y,2026-06-05T11:12:56.154240,13.16594303,.00017699,87.9104,231.1003,97.9774,262.1558,0,U,48989,999,23812,-.80969955E-4,-.18E-6,0
ONEWEB-0272,2021-060Z,2026-06-05T22:41:26.771136,13.16595974,.0001941,87.9102,231.0170,90.8039,269.3314,0,U,48990,999,23813,.62885E-4,.37E-6,0
ONEWEB-0273,2021-060AA,2026-06-05T10:27:20.448576,13.16594157,.00019027,87.9099,231.1165,102.9683,257.1660,0,U,48991,999,23804,.10123969E-3,.52E-6,0
ONEWEB-0274,2021-060AB,2026-06-04T05:52:49.753056,13.16593413,.00020285,87.9080,231.3546,90.4123,269.7240,0,U,48992,999,23792,-.95881837E-4,-.24E-6,0
